{
  "norad_id": 65416,
  "name": "STARLINK-34855",
  "history": [
    {
      "epoch": "2026-03-28T12:47:32.097696Z",
      "apogee_km": 476.01014869636947,
      "perigee_km": 474.36850290828716,
      "latitude_deg": 3.499598835123187e-05,
      "longitude_deg": 127.38639087794596,
      "height_km": 476.02676953464066,
      "semi_major_axis_km": 6853.326325802328,
      "eccentricity": 0.00011977,
      "inclination_deg": 53.1589,
      "raan_deg": 145.2222,
      "arg_perigee_deg": 85.765,
      "mean_anomaly_deg": 274.3488,
      "mean_motion_rev_day": 15.30208622
    }
  ]
}