{"fetched_at":"2026-03-29T02:12:04Z","count":15717,"tles":[{"name":"STARLINK-34855","line1":"1 65416U 25192N   26087.53301039  .00020717  00000+0  70945-3 0  9992","line2":"2 65416  53.1589 145.2222 0001197  85.7650 274.3488 15.30208622 32260","category":"Starlink"}]}